IRIDIUM 126             
1 42809U 17039G   25169.44535877  .00000250  00000+0  82109-4 0  9999
2 42809  86.3981 145.6983 0002533  89.9574 270.1912 14.34217732417818
IRIDIUM 124             
1 42810U 17039H   25169.48147109  .00000350  00000+0  97923-4 0  9993
2 42810  86.4484  82.4283 0002305  77.1483 282.9975 14.43280372422653
IRIDIUM 128             
1 42811U 17039J   25169.50586413  .00000062  00000+0  14910-4 0  9997
2 42811  86.3990 177.1436 0002302  80.4181 279.7275 14.34218108417857
IRIDIUM 121             
1 42812U 17039K   25169.46438633  .00000214  00000+0  69404-4 0  9990
2 42812  86.3981 145.7154 0002212  85.5484 274.5964 14.34218217417699
IRIDIUM 133             
1 42955U 17061A   25169.46780952  .00000006  00000+0 -47856-5 0  9995
2 42955  86.3999 177.2681 0002295  88.7007 271.4451 14.34217600402649
IRIDIUM 100             
1 42956U 17061B   25169.53123716  .00000105  00000+0  30272-4 0  9995
2 42956  86.3984 177.1697 0002524  85.5489 274.5995 14.34218750402659
IRIDIUM 122             
1 42957U 17061C   25169.49952271  .00000005  00000+0 -54437-5 0  9997
2 42957  86.3997 177.1813 0002331  89.2039 270.9424 14.34217549402654
IRIDIUM 129             
1 42958U 17061D   25169.45512349  .00000053  00000+0  11892-4 0  9991
2 42958  86.3991 177.2628 0002321 100.0734 260.0724 14.34218045402663
